EUTELSAT 8 WEST B       
1 40875U 15039B   25299.18239166 -.00000053  00000+0  00000+0 0  9992
2 40875   0.0694   2.6090 0003958 217.3274 232.5376  1.00271693 37314
EUTELSAT 9B             
1 41310U 16005A   25299.19419958  .00000074  00000+0  00000+0 0  9993
2 41310   0.0732  71.9025 0003767 171.7924 230.0606  1.00273192 35775
EUTELSAT 65 WEST A      
1 41382U 16014A   25299.10442382 -.00000264  00000+0  00000+0 0  9992
2 41382   0.0655  40.5932 0002207 177.8989 148.6651  1.00273759 35181
EUTELSAT 117 WEST B     
1 41589U 16038B   25299.09419711  .00000001  00000+0  00000+0 0  9993
2 41589   0.0104 102.8646 0000245 172.0144  36.7724  1.00270585 34319
EUTELSAT 172B           
1 42741U 17029B   25299.09766919  .00000007  00000+0  00000+0 0  9996
2 42741   0.0200 173.0411 0000279 271.6920 157.1898  1.00272111 31383
EUTELSAT 7C             
1 44334U 19034B   25299.19419958  .00000060  00000+0  00000+0 0  9992
2 44334   0.0668 187.7478 0003102   5.5643 278.4444  1.00270696  4481
EUTELSAT 5 WEST B       
1 44624U 19067A   25299.11638388 -.00000030  00000+0  00000+0 0  9990
2 44624   0.0679   0.2147 0003069 212.9358 218.5364  1.00271103 22093
EUTELSAT KONNECT        
1 45027U 20005B   25299.19419958  .00000062  00000+0  00000+0 0  9994
2 45027   0.0654  89.1319 0001176 162.1761 220.6606  1.00269823 21988
